[{"OBJECT_NAME":"ONEWEB-0627","OBJECT_ID":"2023-004AE","EPOCH":"2025-09-24T10:29:44.113632","MEAN_MOTION":13.17650203,"ECCENTRICITY":0.00022237,"INCLINATION":87.9059,"RA_OF_ASC_NODE":58.7403,"ARG_OF_PERICENTER":88.2799,"MEAN_ANOMALY":271.8587,"EPHEMERIS_TYPE":0,"CLASSIFICATION_TYPE":"U","NORAD_CAT_ID":55168,"ELEMENT_SET_NO":999,"REV_AT_EPOCH":13258,"BSTAR":0.000132637,"MEAN_MOTION_DOT":6.4e-7,"MEAN_MOTION_DDOT":0},{"OBJECT_NAME":"ONEWEB-0628","OBJECT_ID":"2023-004AF","EPOCH":"2025-09-25T07:51:28.778688","MEAN_MOTION":13.12444082,"ECCENTRICITY":0.0002191,"INCLINATION":87.8927,"RA_OF_ASC_NODE":43.2644,"ARG_OF_PERICENTER":83.4018,"MEAN_ANOMALY":276.736,"EPHEMERIS_TYPE":0,"CLASSIFICATION_TYPE":"U","NORAD_CAT_ID":55169,"ELEMENT_SET_NO":999,"REV_AT_EPOCH":13329,"BSTAR":-0.00093055904,"MEAN_MOTION_DOT":-3.22e-6,"MEAN_MOTION_DDOT":0},{"OBJECT_NAME":"ONEWEB-0629","OBJECT_ID":"2023-004AG","EPOCH":"2025-09-24T22:39:56.800224","MEAN_MOTION":13.17648793,"ECCENTRICITY":0.0001639,"INCLINATION":87.9067,"RA_OF_ASC_NODE":58.6343,"ARG_OF_PERICENTER":81.9035,"MEAN_ANOMALY":278.2282,"EPHEMERIS_TYPE":0,"CLASSIFICATION_TYPE":"U","NORAD_CAT_ID":55170,"ELEMENT_SET_NO":999,"REV_AT_EPOCH":13265,"BSTAR":2.054724e-5,"MEAN_MOTION_DOT":2.1e-7,"MEAN_MOTION_DDOT":0},{"OBJECT_NAME":"ONEWEB-0631","OBJECT_ID":"2023-004AH","EPOCH":"2025-09-25T07:00:41.980320","MEAN_MOTION":13.1868517,"ECCENTRICITY":0.00022196,"INCLINATION":87.9213,"RA_OF_ASC_NODE":28.031,"ARG_OF_PERICENTER":109.8378,"MEAN_ANOMALY":250.2994,"EPHEMERIS_TYPE":0,"CLASSIFICATION_TYPE":"U","NORAD_CAT_ID":55171,"ELEMENT_SET_NO":999,"REV_AT_EPOCH":13476,"BSTAR":0.00024704098,"MEAN_MOTION_DOT":1.1e-6,"MEAN_MOTION_DDOT":0},{"OBJECT_NAME":"ONEWEB-0709","OBJECT_ID":"2023-004AJ","EPOCH":"2025-09-25T05:24:57.304800","MEAN_MOTION":13.1141616,"ECCENTRICITY":0.00017925,"INCLINATION":87.8787,"RA_OF_ASC_NODE":73.8699,"ARG_OF_PERICENTER":122.121,"MEAN_ANOMALY":238.0092,"EPHEMERIS_TYPE":0,"CLASSIFICATION_TYPE":"U","NORAD_CAT_ID":55172,"ELEMENT_SET_NO":999,"REV_AT_EPOCH":13114,"BSTAR":0.0017097987,"MEAN_MOTION_DOT":6.19e-6,"MEAN_MOTION_DDOT":0},{"OBJECT_NAME":"ONEWEB-0710","OBJECT_ID":"2023-004AK","EPOCH":"2025-09-24T23:00:36.382752","MEAN_MOTION":13.17638316,"ECCENTRICITY":0.00018238,"INCLINATION":87.9062,"RA_OF_ASC_NODE":58.6268,"ARG_OF_PERICENTER":92.2039,"MEAN_ANOMALY":267.9302,"EPHEMERIS_TYPE":0,"CLASSIFICATION_TYPE":"U","NORAD_CAT_ID":55173,"ELEMENT_SET_NO":999,"REV_AT_EPOCH":13265,"BSTAR":-0.0024183432,"MEAN_MOTION_DOT":-9.26e-6,"MEAN_MOTION_DDOT":0},{"OBJECT_NAME":"ONEWEB-0711","OBJECT_ID":"2023-004AL","EPOCH":"2025-09-24T23:13:50.035008","MEAN_MOTION":13.11419065,"ECCENTRICITY":0.0002396,"INCLINATION":87.8795,"RA_OF_ASC_NODE":73.8895,"ARG_OF_PERICENTER":83.2109,"MEAN_ANOMALY":276.9291,"EPHEMERIS_TYPE":0,"CLASSIFICATION_TYPE":"U","NORAD_CAT_ID":55174,"ELEMENT_SET_NO":999,"REV_AT_EPOCH":13107,"BSTAR":-0.00067509139,"MEAN_MOTION_DOT":-2.27e-6,"MEAN_MOTION_DDOT":0},{"OBJECT_NAME":"ONEWEB-0713","OBJECT_ID":"2023-004AM","EPOCH":"2025-09-24T23:40:41.691360","MEAN_MOTION":13.11418656,"ECCENTRICITY":0.00019331,"INCLINATION":87.8787,"RA_OF_ASC_NODE":73.8921,"ARG_OF_PERICENTER":87.3555,"MEAN_ANOMALY":272.7794,"EPHEMERIS_TYPE":0,"CLASSIFICATION_TYPE":"U","NORAD_CAT_ID":55175,"ELEMENT_SET_NO":999,"REV_AT_EPOCH":13106,"BSTAR":0.0011293348,"MEAN_MOTION_DOT":4.13e-6,"MEAN_MOTION_DDOT":0},{"OBJECT_NAME":"ONEWEB-0715","OBJECT_ID":"2023-004AN","EPOCH":"2025-09-25T05:02:58.613568","MEAN_MOTION":13.11420668,"ECCENTRICITY":0.00020623,"INCLINATION":87.8784,"RA_OF_ASC_NODE":73.8475,"ARG_OF_PERICENTER":109.6694,"MEAN_ANOMALY":250.4656,"EPHEMERIS_TYPE":0,"CLASSIFICATION_TYPE":"U","NORAD_CAT_ID":55176,"ELEMENT_SET_NO":999,"REV_AT_EPOCH":13113,"BSTAR":0.0011861395,"MEAN_MOTION_DOT":4.33e-6,"MEAN_MOTION_DDOT":0},{"OBJECT_NAME":"ONEWEB-0716","OBJECT_ID":"2023-004AP","EPOCH":"2025-09-25T04:18:54.429696","MEAN_MOTION":13.17650153,"ECCENTRICITY":0.00014603,"INCLINATION":87.9062,"RA_OF_ASC_NODE":58.5824,"ARG_OF_PERICENTER":92.4344,"MEAN_ANOMALY":267.6954,"EPHEMERIS_TYPE":0,"CLASSIFICATION_TYPE":"U","NORAD_CAT_ID":55177,"ELEMENT_SET_NO":999,"REV_AT_EPOCH":13268,"BSTAR":-2.409353e-5,"MEAN_MOTION_DOT":4.0e-8,"MEAN_MOTION_DDOT":0},{"OBJECT_NAME":"ONEWEB-0717","OBJECT_ID":"2023-004AQ","EPOCH":"2025-09-24T18:47:51.665568","MEAN_MOTION":13.17649594,"ECCENTRICITY":0.00024078,"INCLINATION":87.9074,"RA_OF_ASC_NODE":58.6252,"ARG_OF_PERICENTER":90.8736,"MEAN_ANOMALY":269.2672,"EPHEMERIS_TYPE":0,"CLASSIFICATION_TYPE":"U","NORAD_CAT_ID":55178,"ELEMENT_SET_NO":999,"REV_AT_EPOCH":13268,"BSTAR":0.00014970584,"MEAN_MOTION_DOT":7.1e-7,"MEAN_MOTION_DDOT":0},{"OBJECT_NAME":"ONEWEB-0719","OBJECT_ID":"2023-004AR","EPOCH":"2025-09-24T22:41:08.979648","MEAN_MOTION":13.17647405,"ECCENTRICITY":0.00015436,"INCLINATION":87.9071,"RA_OF_ASC_NODE":58.5758,"ARG_OF_PERICENTER":87.0918,"MEAN_ANOMALY":273.0391,"EPHEMERIS_TYPE":0,"CLASSIFICATION_TYPE":"U","NORAD_CAT_ID":55179,"ELEMENT_SET_NO":999,"REV_AT_EPOCH":13265,"BSTAR":1.2863719e-5,"MEAN_MOTION_DOT":1.8e-7,"MEAN_MOTION_DDOT":0},{"OBJECT_NAME":"ONEWEB-0530","OBJECT_ID":"2023-029A","EPOCH":"2025-09-25T02:14:12.674400","MEAN_MOTION":13.20773184,"ECCENTRICITY":0.00022395,"INCLINATION":87.9256,"RA_OF_ASC_NODE":327.3436,"ARG_OF_PERICENTER":87.3421,"MEAN_ANOMALY":272.7969,"EPHEMERIS_TYPE":0,"CLASSIFICATION_TYPE":"U","NORAD_CAT_ID":55796,"ELEMENT_SET_NO":999,"REV_AT_EPOCH":12615,"BSTAR":0.00027678679,"MEAN_MOTION_DOT":1.26e-6,"MEAN_MOTION_DDOT":0},{"OBJECT_NAME":"ONEWEB-0534","OBJECT_ID":"2023-029B","EPOCH":"2025-09-25T03:45:06.366816","MEAN_MOTION":13.20771469,"ECCENTRICITY":0.00017509,"INCLINATION":87.9249,"RA_OF_ASC_NODE":327.3345,"ARG_OF_PERICENTER":96.2157,"MEAN_ANOMALY":263.9176,"EPHEMERIS_TYPE":0,"CLASSIFICATION_TYPE":"U","NORAD_CAT_ID":55797,"ELEMENT_SET_NO":999,"REV_AT_EPOCH":12616,"BSTAR":0.00014474284,"MEAN_MOTION_DOT":7.2e-7,"MEAN_MOTION_DDOT":0},{"OBJECT_NAME":"ONEWEB-0556","OBJECT_ID":"2023-029C","EPOCH":"2025-09-25T02:05:08.046816","MEAN_MOTION":13.2077271,"ECCENTRICITY":0.00016708,"INCLINATION":87.9256,"RA_OF_ASC_NODE":327.3442,"ARG_OF_PERICENTER":72.7858,"MEAN_ANOMALY":287.3458,"EPHEMERIS_TYPE":0,"CLASSIFICATION_TYPE":"U","NORAD_CAT_ID":55798,"ELEMENT_SET_NO":999,"REV_AT_EPOCH":12615,"BSTAR":0.00012724138,"MEAN_MOTION_DOT":6.5e-7,"MEAN_MOTION_DDOT":0},{"OBJECT_NAME":"ONEWEB-0562","OBJECT_ID":"2023-029D","EPOCH":"2025-09-25T05:25:07.622688","MEAN_MOTION":13.207706,"ECCENTRICITY":0.00023132,"INCLINATION":87.9249,"RA_OF_ASC_NODE":327.3032,"ARG_OF_PERICENTER":74.9468,"MEAN_ANOMALY":285.1921,"EPHEMERIS_TYPE":0,"CLASSIFICATION_TYPE":"U","NORAD_CAT_ID":55799,"ELEMENT_SET_NO":999,"REV_AT_EPOCH":12617,"BSTAR":9.40006e-7,"MEAN_MOTION_DOT":1.3e-7,"MEAN_MOTION_DDOT":0},{"OBJECT_NAME":"ONEWEB-0563","OBJECT_ID":"2023-029E","EPOCH":"2025-09-25T05:15:58.601664","MEAN_MOTION":13.20762419,"ECCENTRICITY":0.00015524,"INCLINATION":87.9261,"RA_OF_ASC_NODE":327.3266,"ARG_OF_PERICENTER":94.5003,"MEAN_ANOMALY":265.6308,"EPHEMERIS_TYPE":0,"CLASSIFICATION_TYPE":"U","NORAD_CAT_ID":55800,"ELEMENT_SET_NO":999,"REV_AT_EPOCH":12616,"BSTAR":-0.002907945,"MEAN_MOTION_DOT":-1.169e-5,"MEAN_MOTION_DDOT":0}]
