ONEWEB-0627             
1 55168U 23004AE  25267.43731613  .00000064  00000+0  13264-3 0  9992
2 55168  87.9059  58.7403 0002223  88.2799 271.8587 13.17650203132589
ONEWEB-0628             
1 55169U 23004AF  25268.32741642 -.00000322  00000+0 -93056-3 0  9991
2 55169  87.8927  43.2644 0002191  83.4018 276.7360 13.12444082133297
ONEWEB-0629             
1 55170U 23004AG  25267.94440741  .00000021  00000+0  20547-4 0  9996
2 55170  87.9067  58.6343 0001639  81.9035 278.2282 13.17648793132658
ONEWEB-0631             
1 55171U 23004AH  25268.29215255  .00000110  00000+0  24704-3 0  9993
2 55171  87.9213  28.0310 0002219 109.8378 250.2994 13.18685170134767
ONEWEB-0709             
1 55172U 23004AJ  25268.22566325  .00000619  00000+0  17098-2 0  9995
2 55172  87.8787  73.8699 0001792 122.1210 238.0092 13.11416160131145
ONEWEB-0710             
1 55173U 23004AK  25267.95875443 -.00000926  00000+0 -24183-2 0  9995
2 55173  87.9062  58.6268 0001823  92.2039 267.9302 13.17638316132654
ONEWEB-0711             
1 55174U 23004AL  25267.96794022 -.00000227  00000+0 -67509-3 0  9994
2 55174  87.8795  73.8895 0002396  83.2109 276.9291 13.11419065131070
ONEWEB-0713             
1 55175U 23004AM  25267.98659365  .00000413  00000+0  11293-2 0  9990
2 55175  87.8787  73.8921 0001933  87.3555 272.7794 13.11418656131064
ONEWEB-0715             
1 55176U 23004AN  25268.21040062  .00000433  00000+0  11861-2 0  9999
2 55176  87.8784  73.8475 0002062 109.6694 250.4656 13.11420668131136
ONEWEB-0716             
1 55177U 23004AP  25268.17979664  .00000004  00000+0 -24094-4 0  9993
2 55177  87.9062  58.5824 0001460  92.4344 267.6954 13.17650153132689
ONEWEB-0717             
1 55178U 23004AQ  25267.78323687  .00000071  00000+0  14971-3 0  9993
2 55178  87.9074  58.6252 0002407  90.8736 269.2672 13.17649594132680
ONEWEB-0719             
1 55179U 23004AR  25267.94524282  .00000018  00000+0  12864-4 0  9997
2 55179  87.9071  58.5758 0001543  87.0918 273.0391 13.17647405132655
ONEWEB-0530             
1 55796U 23029A   25268.09320225  .00000126  00000+0  27679-3 0  9996
2 55796  87.9256 327.3436 0002239  87.3421 272.7969 13.20773184126153
ONEWEB-0534             
1 55797U 23029B   25268.15632369  .00000072  00000+0  14474-3 0  9998
2 55797  87.9249 327.3345 0001750  96.2157 263.9176 13.20771469126164
ONEWEB-0556             
1 55798U 23029C   25268.08689869  .00000065  00000+0  12724-3 0  9996
2 55798  87.9256 327.3442 0001670  72.7858 287.3458 13.20772710126151
ONEWEB-0562             
1 55799U 23029D   25268.22578267  .00000013  00000+0  94001-6 0  9996
2 55799  87.9249 327.3032 0002313  74.9468 285.1921 13.20770600126174
ONEWEB-0563             
1 55800U 23029E   25268.21942826 -.00001169  00000+0 -29079-2 0  9998
2 55800  87.9261 327.3266 0001552  94.5003 265.6308 13.20762419126167
